#dP2020  4  1  0  0  0.00000000      96 __u+U ITR00 FIT  IAC
## 2099 259200.00000000   900.00000000 58940 0.0000000000000
+  113   C02C03C04C06C07C08C09C10C11C12C13C14C16C19C20C21C22
+        C23C24C25C26C27C28C29C30C32C33C34C35C36C37E01E02E03
+        E04E05E07E08E09E11E12E13E14E15E18E21E24E25E26E27E30
+        E31E33E36G01G02G03G04G05G06G07G08G09G10G11G12G13G14
+        G15G16G17G18G19G20G21G22G23G24G25G26G27G28G29G30G31
+        G32J01J02J03J07R01R02R03R04R05R07R08R09R11R12R13R14
+        R15R16R17R18R19R20R21R22R23R24R26  0  0  0  0  0  0
++        12 12 13  8  8  8  8  8  8  8  8  8  8  7  7  8  7
++         8  8  8  8  7  8  7  7  8  8  8  8  8  8  4  5  4
++         4  4  5  5  5  5  4  5  4  5  4  4  5  5  4  5  4
++         4  4  4  3  3  3  3  4  3  4  3  3  3  4  3  3  3
++         4  4  3  4  3  3  3  3  4  3  3  4  3  4  4  3  3
++         3  8  8  8 13  6  5  6  6  5  5  5  6  5  5  6  5
++         5  6  5  5  6  6  5  5  5  6  8  0  0  0  0  0  0
%c M  cc GPS ccc cccc cccc cccc cccc ccccc ccccc ccccc ccccc
%c cc cc ccc ccc cccc cccc cccc cccc ccccc ccccc ccccc ccccc
%f  0.0000000  0.000000000  0.00000000000  0.000000000000000
%f  0.0000000  0.000000000  0.00000000000  0.000000000000000
%i    0    0    0    0      0      0      0      0         0
%i    0    0    0    0      0      0      0      0         0
/* INFORMATION & ANALYSIS CENTER (IAC)            RAPID DATA
/* S/V CLOCKS ARE ALIGNED TO GNSS TIME                      
/* G:C1WC2W R:C1PC2P E:C1XC5X C:C2IC6I J:C1CC2S             
/* PCV:IGS14_2097 OL/AL:FES2004  NONE     YN ORB:CoN CLK:CoN
*  2020 04 01 18 30  0.00000000
PC02   4412.855891  41929.735836   1221.786188    444.304057
PC03 -14854.642051  39495.403767    385.784376    246.688201
PC04 -39628.030127  14380.324478   -368.278018   -168.662315
PC06  -8866.525913  34244.004019  23639.882360    242.041880
PC07 -18311.184017  21574.731353 -31183.531086    896.352510
PC08 -24567.833853  32863.137689   9042.918484   -181.483847
PC09    951.508233  41082.607287  10546.965067    442.803206
PC10  -1754.548026  26118.943166 -32863.098317   -813.809399
PC11  15361.398826  -1847.295626  23285.926623   -276.647713
PC12  11070.294460  18636.342351  17599.144561    341.991625
PC13 -12895.795583  33939.979585  21321.434579    357.215690
PC14  24494.416751   4453.729345 -12516.287146    255.288448
PC16  -5140.227387  36505.857629  20689.744374   -698.580732
PC19 -20124.400172   3440.650140  19062.108294    369.402877
PC20 -25170.334879 -11074.117283   4867.795202   -928.794696
PC21  15295.470435  19535.987780  12773.910054   -237.019897
PC22  -3332.681713  16234.897850  22457.071854   -850.248089
PC23  13504.183254 -19310.794182  14947.299942   -930.987548
PC24  21731.696841   2341.936983 -17373.884327   -875.695142
PC25  24673.848960 -12988.633067  -1352.046444   -568.397284
PC26   6821.221085  14670.681532 -22743.484087    628.281889
PC27  -6062.461712 -25259.396800 -10177.667933    305.451653
PC28   6145.855709 -26190.179900   7429.210723    296.433014
PC29 -14247.279590  12358.106269 -20574.495499    209.024726
PC30 -14963.561926  -9317.012023 -21627.498557    295.619434
PC32 -15506.877690 -19413.707845 -12694.590206   -917.868995
PC33  20135.347063  -3501.946396 -18981.507309   -886.242321
PC34  15062.952929   8936.336746  21727.966614   -596.668853
PC35  -5360.133011  26347.633747  -7544.901169   -911.805699
PC36 -25023.583620  12257.398461   1587.229818   -821.237952
PC37  -5767.249278 -15177.569178  22710.318034   -849.394067
PE01   8680.456152  15300.914616 -23811.675981   -827.017400
PE02  -8753.459693 -15277.306657  23784.669670    123.468868
PE03 -12348.232550 -26179.771849  -6222.044062   -283.240190
PE04  21407.226574  16596.760229 -11926.803252   -496.898255
PE05   4071.483198 -20515.064060 -20941.662917   -392.263394
PE07 -17999.313404   2907.713315  23329.199341   -362.299784
PE08 -21500.365196 -16327.606507  12157.634062   6198.432093
PE09  17802.766353  -3054.123923 -23439.653786   6106.751396
PE11  19395.936377 -13652.104659  17692.767036   2040.232570
PE12  14319.529653   7837.317127  24699.536880   5875.290855
PE13 -19301.038345  13547.765395 -17889.075338    399.719053
PE14  11778.536618  20844.763332   7520.398906   -961.961887
PE15 -14392.545827  -7495.987276 -24743.230815    871.954481
PE18 -20094.886872 -14964.048245 -19500.911432  -1060.311788
PE21 -13591.477088  15280.979594 -21405.749043   -591.158321
PE24  28301.910404  -6060.793311   6241.892600   5529.684746
PE25  13725.259059 -15246.192516  21339.511337   -508.369968
PE26 -12856.948620  26664.746941   -172.416471   3351.547571
PE27 -28196.160323   6307.036575  -6416.322381    249.901756
PE30 -26005.549086  -6636.749005  12453.927848   4020.291872
PE31  26182.206847   6329.665581 -12273.974963   -472.158846
PE33   1027.418201  24167.022588  17081.355059   -468.885288
PE36  12893.557874 -26631.940982    555.648755    578.472745
PG01  13572.580732 -21659.815920  -6744.286249   -345.073209
PG02 -20008.288155  10435.170325 -13313.272483   -432.139217
PG03   6623.453757 -13937.299533 -21663.387418   -133.698826
PG04   2078.268694 -23458.766640 -12244.452392    -70.353100
PG05 -24448.727537   2915.674333  10078.615628    -10.114583
PG06 -17242.287614  -1025.508836 -20136.701937   -243.791085
PG07  -1964.046349 -18193.015719  19372.809983   -248.996787
PG08   9289.120420 -14884.267844  19882.108747    -29.172790
PG09  -6939.721357 -25516.451716  -2447.597232   -188.966096
PG10  21789.252540  11681.540836  10099.584933   -296.545279
PG11  12426.105521 -22081.156098   7962.612553   -317.314707
PG12  -9428.928427  12472.891367 -21680.840747    134.097723
PG13 -13810.021228   6692.480260  21549.208369     -1.248890
PG14  15837.498867   9230.518581 -18946.424389    -22.424511
PG15  -8078.307366  16428.608769  18805.387022   -240.924445
PG16  24250.082674   -409.570243  11126.999580   -141.693826
PG17 -13705.071068 -18558.766311 -12779.631807    241.861161
PG18  -3866.617825  20618.044133  16285.733921    140.720900
PG19 -15335.324508 -11055.883416 -18954.805107   -177.836759
PG20  12777.000307  14510.518143  18217.012202    527.845483
PG21   3638.567419  18238.770519  19845.745061    -19.868314
PG22  15611.465388 -11494.494858 -17876.950527   -785.233878
PG23   -520.283821 -24082.680362 -10390.680141   -125.402594
PG24 -13606.301146  22204.626070  -4302.301566    -11.125097
PG25   3322.083496  15803.305332 -21369.003986     -5.804893
PG26  26342.394210   4189.451466    646.779966    179.172730
PG27  14476.636898  -3185.901337  21918.499938   -255.021334
PG28 -21262.587680 -13157.787103   9321.612117    728.601394
PG29   3489.922093  25940.887794  -4488.453017    -70.775704
PG30 -11844.885229 -10333.718652  21445.203666   -188.783655
PG31  18968.765355   -816.830798 -18790.717569    -33.248223
PG32  15575.333173  16918.914501 -13338.999246    249.995651
PJ01 -25251.355028  22999.507812  29734.507667   -332.481698
PJ02 -35333.798210  18236.633703  -9488.092748     -2.159814
PJ03 -20363.463244  27734.493296 -19772.652641     -1.604926
PJ07 -25377.113781  33678.890617     42.719824      0.037693
PR01  16080.853280   1258.278943 -19749.767037     59.393455
PR02   -799.536090 -14172.309484 -21136.670462    419.689000
PR03 -14905.347465 -18787.591200  -8578.005618     12.564198
PR04 -20363.403757 -12650.326186   8743.721629     44.052426
PR05 -14248.115343    571.623974  21158.437647     47.844986
PR07  15222.198277  18822.544026   8144.067012    -34.988582
PR08  20356.060770  12727.106235  -8584.275934    -51.368790
PR09  -8326.702933  13209.387063 -20182.004156    124.998483
PR11  21712.159485   -424.121333 -13337.080598    -18.721663
PR12  23589.224843  -9298.682024   2924.049386    118.980306
PR13  11831.995696 -13247.780687  18285.362816    -36.799878
PR14  -6771.519527  -9278.468028  22781.747303     49.721043
PR15 -21254.595063    -78.492580  14114.087949    106.258065
PR16 -23167.780366   9949.521246  -3427.600065     -2.496704
PR17  -1624.018198 -21679.463110 -13356.816733    313.891963
PR18  -8936.130579  -7201.434622 -22756.099862     30.542316
PR19 -11719.153132  10360.088567 -20147.843699    -86.615747
PR20  -7676.176990  24001.591881  -4121.323284   -408.071127
PR21   2014.756958  21118.689872  14152.883741   -115.204557
PR22   9632.276633   4553.970942  23190.260672    -20.209542
PR23  10964.545067 -16605.437204  15949.188840    296.401619
PR24   6162.211472 -24688.298254   1581.003308    -49.941953
PR26  -8783.619114  22375.381842  -8490.896888   -400.627275
EOF
